IRIDIUM 159             
1 43578U 18061K   24251.19622970  .00000917  00000+0  32041-3 0  9992
2 43578  86.4002 327.5190 0002185  95.3061 264.8384 14.34221070320505
IRIDIUM 180             
1 43922U 19002A   24251.54456248  .00000073  00000+0  18910-4 0  9996
2 43922  86.3906 264.2180 0002362  87.3189 272.8277 14.34216233296209
IRIDIUM 176             
1 43923U 19002B   24251.49467855  .00000842  00000+0  12956-3 0  9994
2 43923  86.6034 264.2543 0002578  90.9727 269.1785 14.72250971303958
IRIDIUM 168             
1 43924U 19002C   24250.56146911  .00000000  00000+0 -69436-5 0  9993
2 43924  86.3912 264.6886 0002240  91.6830 268.4622 14.34217536296001
IRIDIUM 173             
1 43925U 19002D   24251.10693068  .00000126  00000+0  37865-4 0  9993
2 43925  86.3906 264.3757 0002382  88.9252 271.2217 14.34218336296071
IRIDIUM 169             
1 43926U 19002E   24251.40980217  .00001228  00000+0  39484-3 0  9994
2 43926  86.4197 295.8986 0001785  37.1295 323.0026 14.38604552297097
IRIDIUM 172             
1 43927U 19002F   24250.54243876  .00000019  00000+0 -29561-6 0  9998
2 43927  86.3905 264.6183 0002175  92.0923 268.0522 14.34217491295993
IRIDIUM 175             
1 43928U 19002G   24251.48916061  .00001734  00000+0  27095-3 0  9997
2 43928  86.1486 232.7514 0002278  88.7495 271.3982 14.72260092303949
